[
  {
    "OBJECT_NAME": "TIANXING-1 02",
    "OBJECT_ID": "2024-008A",
    "EPOCH": "2024-01-31T03:31:11.499168",
    "MEAN_MOTION": 15.7912512,
    "ECCENTRICITY": 0.0005202,
    "INCLINATION": 95.1279,
    "RA_OF_ASC_NODE": 100.0947,
    "ARG_OF_PERICENTER": 114.0632,
    "MEAN_ANOMALY": 306.3819,
    "EPHEMERIS_TYPE": 0,
    "CLASSIFICATION_TYPE": "U",
    "NORAD_CAT_ID": 58756,
    "ELEMENT_SET_NO": 999,
    "REV_AT_EPOCH": 316,
    "BSTAR": 0.00054739,
    "MEAN_MOTION_DOT": 0.00098138,
    "MEAN_MOTION_DDOT": 0
  },
  {
    "OBJECT_NAME": "YUNYAO-1 18",
    "OBJECT_ID": "2024-009A",
    "EPOCH": "2024-01-31T12:04:16.995936",
    "MEAN_MOTION": 15.26966439,
    "ECCENTRICITY": 0.0014357,
    "INCLINATION": 49.9931,
    "RA_OF_ASC_NODE": 71.5527,
    "ARG_OF_PERICENTER": 10.9667,
    "MEAN_ANOMALY": 349.16,
    "EPHEMERIS_TYPE": 0,
    "CLASSIFICATION_TYPE": "U",
    "NORAD_CAT_ID": 58758,
    "ELEMENT_SET_NO": 999,
    "REV_AT_EPOCH": 309,
    "BSTAR": 0.00093978,
    "MEAN_MOTION_DOT": 0.00025072,
    "MEAN_MOTION_DDOT": 0
  },
  {
    "OBJECT_NAME": "YUNYAO-1 19",
    "OBJECT_ID": "2024-009B",
    "EPOCH": "2024-01-31T12:04:50.860416",
    "MEAN_MOTION": 15.26936293,
    "ECCENTRICITY": 0.0014018,
    "INCLINATION": 49.9867,
    "RA_OF_ASC_NODE": 71.5458,
    "ARG_OF_PERICENTER": 11.5159,
    "MEAN_ANOMALY": 348.6116,
    "EPHEMERIS_TYPE": 0,
    "CLASSIFICATION_TYPE": "U",
    "NORAD_CAT_ID": 58759,
    "ELEMENT_SET_NO": 999,
    "REV_AT_EPOCH": 310,
    "BSTAR": 0.00094483,
    "MEAN_MOTION_DOT": 0.00025183,
    "MEAN_MOTION_DDOT": 0
  },
  {
    "OBJECT_NAME": "YUNYAO-1 20",
    "OBJECT_ID": "2024-009C",
    "EPOCH": "2024-01-31T12:03:08.013312",
    "MEAN_MOTION": 15.27029183,
    "ECCENTRICITY": 0.0014079,
    "INCLINATION": 49.9932,
    "RA_OF_ASC_NODE": 71.5477,
    "ARG_OF_PERICENTER": 13.4821,
    "MEAN_ANOMALY": 346.6509,
    "EPHEMERIS_TYPE": 0,
    "CLASSIFICATION_TYPE": "U",
    "NORAD_CAT_ID": 58760,
    "ELEMENT_SET_NO": 999,
    "REV_AT_EPOCH": 310,
    "BSTAR": 0.00093222,
    "MEAN_MOTION_DOT": 0.00024912,
    "MEAN_MOTION_DDOT": 0
  },
  {
    "OBJECT_NAME": "GRAVITY-1 R/B",
    "OBJECT_ID": "2024-009D",
    "EPOCH": "2024-01-31T11:45:30.419424",
    "MEAN_MOTION": 15.63235542,
    "ECCENTRICITY": 0.0156398,
    "INCLINATION": 49.8519,
    "RA_OF_ASC_NODE": 65.7394,
    "ARG_OF_PERICENTER": 69.2568,
    "MEAN_ANOMALY": 292.5083,
    "EPHEMERIS_TYPE": 0,
    "CLASSIFICATION_TYPE": "U",
    "NORAD_CAT_ID": 58761,
    "ELEMENT_SET_NO": 999,
    "REV_AT_EPOCH": 317,
    "BSTAR": 0.00035539,
    "MEAN_MOTION_DOT": 0.00060623,
    "MEAN_MOTION_DDOT": 1.148e-05
  },
  {
    "OBJECT_NAME": "STARLINK-31127",
    "OBJECT_ID": "2024-011A",
    "EPOCH": "2024-01-31T14:00:01.999872",
    "MEAN_MOTION": 15.62226668,
    "ECCENTRICITY": 7.47e-05,
    "INCLINATION": 53.1607,
    "RA_OF_ASC_NODE": 251.8008,
    "ARG_OF_PERICENTER": 85.7618,
    "MEAN_ANOMALY": 205.6233,
    "EPHEMERIS_TYPE": 0,
    "CLASSIFICATION_TYPE": "U",
    "NORAD_CAT_ID": 58765,
    "ELEMENT_SET_NO": 999,
    "REV_AT_EPOCH": 382,
    "BSTAR": -0.021314,
    "MEAN_MOTION_DOT": -0.01713334,
    "MEAN_MOTION_DDOT": 0
  },
  {
    "OBJECT_NAME": "STARLINK-31114",
    "OBJECT_ID": "2024-011B",
    "EPOCH": "2024-01-31T14:00:01.999872",
    "MEAN_MOTION": 15.62225472,
    "ECCENTRICITY": 8.78e-05,
    "INCLINATION": 53.1606,
    "RA_OF_ASC_NODE": 251.7985,
    "ARG_OF_PERICENTER": 80.6218,
    "MEAN_ANOMALY": 211.6311,
    "EPHEMERIS_TYPE": 0,
    "CLASSIFICATION_TYPE": "U",
    "NORAD_CAT_ID": 58766,
    "ELEMENT_SET_NO": 999,
    "REV_AT_EPOCH": 382,
    "BSTAR": -0.021325,
    "MEAN_MOTION_DOT": -0.01714123,
    "MEAN_MOTION_DDOT": 0
  },
  {
    "OBJECT_NAME": "STARLINK-31140",
    "OBJECT_ID": "2024-011C",
    "EPOCH": "2024-01-31T14:00:01.999872",
    "MEAN_MOTION": 15.62223863,
    "ECCENTRICITY": 8.9e-05,
    "INCLINATION": 53.16,
    "RA_OF_ASC_NODE": 251.7967,
    "ARG_OF_PERICENTER": 81.9952,
    "MEAN_ANOMALY": 211.1258,
    "EPHEMERIS_TYPE": 0,
    "CLASSIFICATION_TYPE": "U",
    "NORAD_CAT_ID": 58767,
    "ELEMENT_SET_NO": 999,
    "REV_AT_EPOCH": 393,
    "BSTAR": -0.021326,
    "MEAN_MOTION_DOT": -0.01714105,
    "MEAN_MOTION_DDOT": 0
  },
  {
    "OBJECT_NAME": "STARLINK-31145",
    "OBJECT_ID": "2024-011D",
    "EPOCH": "2024-01-31T14:00:01.999872",
    "MEAN_MOTION": 15.62222248,
    "ECCENTRICITY": 9.1e-05,
    "INCLINATION": 53.1602,
    "RA_OF_ASC_NODE": 251.7949,
    "ARG_OF_PERICENTER": 82.9194,
    "MEAN_ANOMALY": 211.0694,
    "EPHEMERIS_TYPE": 0,
    "CLASSIFICATION_TYPE": "U",
    "NORAD_CAT_ID": 58768,
    "ELEMENT_SET_NO": 999,
    "REV_AT_EPOCH": 383,
    "BSTAR": -0.021324,
    "MEAN_MOTION_DOT": -0.01713873,
    "MEAN_MOTION_DDOT": 0
  },
  {
    "OBJECT_NAME": "STARLINK-31146",
    "OBJECT_ID": "2024-011E",
    "EPOCH": "2024-01-31T14:00:01.999872",
    "MEAN_MOTION": 15.62220165,
    "ECCENTRICITY": 8.9e-05,
    "INCLINATION": 53.1602,
    "RA_OF_ASC_NODE": 251.7933,
    "ARG_OF_PERICENTER": 105.0506,
    "MEAN_ANOMALY": 189.8058,
    "EPHEMERIS_TYPE": 0,
    "CLASSIFICATION_TYPE": "U",
    "NORAD_CAT_ID": 58769,
    "ELEMENT_SET_NO": 999,
    "REV_AT_EPOCH": 394,
    "BSTAR": -0.021303,
    "MEAN_MOTION_DOT": -0.01712223,
    "MEAN_MOTION_DDOT": 0
  },
  {
    "OBJECT_NAME": "STARLINK-31143",
    "OBJECT_ID": "2024-011F",
    "EPOCH": "2024-01-31T14:00:01.999872",
    "MEAN_MOTION": 15.62220015,
    "ECCENTRICITY": 8.27e-05,
    "INCLINATION": 53.1603,
    "RA_OF_ASC_NODE": 251.7912,
    "ARG_OF_PERICENTER": 80.4999,
    "MEAN_ANOMALY": 215.2236,
    "EPHEMERIS_TYPE": 0,
    "CLASSIFICATION_TYPE": "U",
    "NORAD_CAT_ID": 58770,
    "ELEMENT_SET_NO": 999,
    "REV_AT_EPOCH": 383,
    "BSTAR": -0.021333,
    "MEAN_MOTION_DOT": -0.01714344,
    "MEAN_MOTION_DDOT": 0
  },
  {
    "OBJECT_NAME": "STARLINK-31135",
    "OBJECT_ID": "2024-011G",
    "EPOCH": "2024-01-31T14:00:01.999872",
    "MEAN_MOTION": 15.62217993,
    "ECCENTRICITY": 8.94e-05,
    "INCLINATION": 53.1605,
    "RA_OF_ASC_NODE": 251.7895,
    "ARG_OF_PERICENTER": 83.8593,
    "MEAN_ANOMALY": 212.7326,
    "EPHEMERIS_TYPE": 0,
    "CLASSIFICATION_TYPE": "U",
    "NORAD_CAT_ID": 58771,
    "ELEMENT_SET_NO": 999,
    "REV_AT_EPOCH": 382,
    "BSTAR": -0.021328,
    "MEAN_MOTION_DOT": -0.01713896,
    "MEAN_MOTION_DDOT": 0
  },
  {
    "OBJECT_NAME": "STARLINK-31136",
    "OBJECT_ID": "2024-011H",
    "EPOCH": "2024-01-31T14:00:01.999872",
    "MEAN_MOTION": 15.62215798,
    "ECCENTRICITY": 8.37e-05,
    "INCLINATION": 53.1602,
    "RA_OF_ASC_NODE": 251.7875,
    "ARG_OF_PERICENTER": 91.0719,
    "MEAN_ANOMALY": 206.388,
    "EPHEMERIS_TYPE": 0,
    "CLASSIFICATION_TYPE": "U",
    "NORAD_CAT_ID": 58772,
    "ELEMENT_SET_NO": 999,
    "REV_AT_EPOCH": 393,
    "BSTAR": -0.021312,
    "MEAN_MOTION_DOT": -0.01712581,
    "MEAN_MOTION_DDOT": 0
  },
  {
    "OBJECT_NAME": "STARLINK-31073",
    "OBJECT_ID": "2024-011J",
    "EPOCH": "2024-01-31T14:00:01.999872",
    "MEAN_MOTION": 15.62214595,
    "ECCENTRICITY": 8.82e-05,
    "INCLINATION": 53.1604,
    "RA_OF_ASC_NODE": 251.7857,
    "ARG_OF_PERICENTER": 101.8704,
    "MEAN_ANOMALY": 196.457,
    "EPHEMERIS_TYPE": 0,
    "CLASSIFICATION_TYPE": "U",
    "NORAD_CAT_ID": 58773,
    "ELEMENT_SET_NO": 999,
    "REV_AT_EPOCH": 382,
    "BSTAR": -0.021314,
    "MEAN_MOTION_DOT": -0.01712676,
    "MEAN_MOTION_DDOT": 0
  }
]