TIANXING-1 02           
1 58756U 24008A   24031.14666087  .00098138  00000+0  54739-3 0  9992
2 58756  95.1279 100.0947 0005202 114.0632 306.3819 15.79125120  3166
YUNYAO-1 18             
1 58758U 24009A   24031.50297449  .00025072  00000+0  93978-3 0  9992
2 58758  49.9931  71.5527 0014357  10.9667 349.1600 15.26966439  3092
YUNYAO-1 19             
1 58759U 24009B   24031.50336644  .00025183  00000+0  94483-3 0  9999
2 58759  49.9867  71.5458 0014018  11.5159 348.6116 15.26936293  3104
YUNYAO-1 20             
1 58760U 24009C   24031.50217608  .00024912  00000+0  93222-3 0  9998
2 58760  49.9932  71.5477 0014079  13.4821 346.6509 15.27029183  3100
GRAVITY-1 R/B           
1 58761U 24009D   24031.48993541  .00060623  11480-4  35539-3 0  9998
2 58761  49.8519  65.7394 0156398  69.2568 292.5083 15.63235542  3173
STARLINK-31127          
1 58765U 24011A   24031.58335648 -.01713334  00000+0 -21314-1 0  9996
2 58765  53.1607 251.8008 0000747  85.7618 205.6233 15.62226668  3820
STARLINK-31114          
1 58766U 24011B   24031.58335648 -.01714123  00000+0 -21325-1 0  9996
2 58766  53.1606 251.7985 0000878  80.6218 211.6311 15.62225472  3824
STARLINK-31140          
1 58767U 24011C   24031.58335648 -.01714105  00000+0 -21326-1 0  9998
2 58767  53.1600 251.7967 0000890  81.9952 211.1258 15.62223863  3931
STARLINK-31145          
1 58768U 24011D   24031.58335648 -.01713873  00000+0 -21324-1 0  9998
2 58768  53.1602 251.7949 0000910  82.9194 211.0694 15.62222248  3834
STARLINK-31146          
1 58769U 24011E   24031.58335648 -.01712223  00000+0 -21303-1 0  9994
2 58769  53.1602 251.7933 0000890 105.0506 189.8058 15.62220165  3943
STARLINK-31143          
1 58770U 24011F   24031.58335648 -.01714344  00000+0 -21333-1 0  9995
2 58770  53.1603 251.7912 0000827  80.4999 215.2236 15.62220015  3839
STARLINK-31135          
1 58771U 24011G   24031.58335648 -.01713896  00000+0 -21328-1 0  9991
2 58771  53.1605 251.7895 0000894  83.8593 212.7326 15.62217993  3825
STARLINK-31136          
1 58772U 24011H   24031.58335648 -.01712581  00000+0 -21312-1 0  9995
2 58772  53.1602 251.7875 0000837  91.0719 206.3880 15.62215798  3936
STARLINK-31073          
1 58773U 24011J   24031.58335648 -.01712676  00000+0 -21314-1 0  9993
2 58773  53.1604 251.7857 0000882 101.8704 196.4570 15.62214595  3820
